start=new Date('2023-02-03T00:00:00.000Z').valueOf();
sats=[{"OBJECT_TYPE":"PAYLOAD","MEAN_MOTION_DOT":"0.00009723","TLE_LINE1":"1 53227U 22084AQ  23033.89792300  .00009723  00000-0  76034-3 0  9998","MEAN_ANOMALY":"261.8804","DECAY_DATE":null,"OBJECT_NAME":"STARLINK-4366","CLASSIFICATION_TYPE":"U","PERIAPSIS":"561.616","ECCENTRICITY":"0.00019670","REV_AT_EPOCH":"2966","MEAN_ELEMENT_THEORY":"SGP4","INCLINATION":"97.6543","CENTER_NAME":"EARTH","TIME_SYSTEM":"UTC","RCS_SIZE":"LARGE","COUNTRY_CODE":"US","REF_FRAME":"TEME","MEAN_MOTION_DDOT":"0.0000000000000","SITE":"AFWTR","FILE":"3768881","PERIOD":"95.919","ELEMENT_SET_NO":"999","EPHEMERIS_TYPE":"0","APOAPSIS":"564.347","MEAN_MOTION":"15.01269881","NORAD_CAT_ID":"53227","BSTAR":"0.00076034000000","GP_ID":"224255770","EPOCH":"2023-02-02T21:33:00.547200","ARG_OF_PERICENTER":"98.2644","OBJECT_ID":"2022-084AQ","LAUNCH_DATE":"2022-07-22","RA_OF_ASC_NODE":"96.8895","TLE_LINE2":"2 53227  97.6543  96.8895 0001967  98.2644 261.8804 15.01269881 29669","SEMIMAJOR_AXIS":"6941.116"},{"OBJECT_ID":"2022-084AR","ARG_OF_PERICENTER":"98.7613","EPOCH":"2023-02-02T21:40:39.155808","TLE_LINE2":"2 53228  97.6537  96.9031 0002073  98.7613 261.3846 15.01270567 29660","SEMIMAJOR_AXIS":"6941.114","RA_OF_ASC_NODE":"96.9031","LAUNCH_DATE":"2022-07-22","PERIOD":"95.919","ELEMENT_SET_NO":"999","GP_ID":"224255635","BSTAR":"0.00044144000000","NORAD_CAT_ID":"53228","APOAPSIS":"564.418","EPHEMERIS_TYPE":"0","MEAN_MOTION":"15.01270567","RCS_SIZE":"LARGE","CENTER_NAME":"EARTH","TIME_SYSTEM":"UTC","INCLINATION":"97.6537","FILE":"3768881","SITE":"AFWTR","REF_FRAME":"TEME","MEAN_MOTION_DDOT":"0.0000000000000","COUNTRY_CODE":"US","CLASSIFICATION_TYPE":"U","OBJECT_NAME":"STARLINK-4365","TLE_LINE1":"1 53228U 22084AR  23033.90323097  .00005617  00000-0  44144-3 0  9999","MEAN_ANOMALY":"261.3846","DECAY_DATE":null,"MEAN_MOTION_DOT":"0.00005617","OBJECT_TYPE":"PAYLOAD","MEAN_ELEMENT_THEORY":"SGP4","ECCENTRICITY":"0.00020730","REV_AT_EPOCH":"2966","PERIAPSIS":"561.540"},{"TIME_SYSTEM":"UTC","CENTER_NAME":"EARTH","RCS_SIZE":"LARGE","INCLINATION":"97.6540","SITE":"AFWTR","FILE":"3768896","MEAN_MOTION_DDOT":"0.0000000000000","REF_FRAME":"TEME","COUNTRY_CODE":"US","OBJECT_NAME":"STARLINK-4367","TLE_LINE1":"1 53229U 22084AS  23033.89767737  .00007673  00000-0  60132-3 0  9990","MEAN_ANOMALY":"271.3756","DECAY_DATE":null,"CLASSIFICATION_TYPE":"U","MEAN_MOTION_DOT":"0.00007673","OBJECT_TYPE":"PAYLOAD","MEAN_ELEMENT_THEORY":"SGP4","REV_AT_EPOCH":"2966","ECCENTRICITY":"0.00020810","PERIAPSIS":"561.560","OBJECT_ID":"2022-084AS","EPOCH":"2023-02-02T21:32:39.324768","ARG_OF_PERICENTER":"88.7706","RA_OF_ASC_NODE":"96.8894","TLE_LINE2":"2 53229  97.6540  96.8894 0002081  88.7706 271.3756 15.01262239 29660","SEMIMAJOR_AXIS":"6941.140","LAUNCH_DATE":"2022-07-22","ELEMENT_SET_NO":"999","PERIOD":"95.919","BSTAR":"0.00060132000000","GP_ID":"224255910","EPHEMERIS_TYPE":"0","APOAPSIS":"564.449","MEAN_MOTION":"15.01262239","NORAD_CAT_ID":"53229"},{"OBJECT_NAME":"STARLINK-4364","TLE_LINE1":"1 53230U 22084AT  23033.89952796  .00000762  00000-0  63889-4 0  9998","MEAN_ANOMALY":"261.8750","DECAY_DATE":null,"CLASSIFICATION_TYPE":"U","MEAN_MOTION_DOT":"0.00000762","OBJECT_TYPE":"PAYLOAD","MEAN_ELEMENT_THEORY":"SGP4","REV_AT_EPOCH":"3004","ECCENTRICITY":"0.00019310","PERIAPSIS":"561.658","CENTER_NAME":"EARTH","TIME_SYSTEM":"UTC","RCS_SIZE":"LARGE","INCLINATION":"97.6523","SITE":"AFWTR","FILE":"3768896","REF_FRAME":"TEME","MEAN_MOTION_DDOT":"0.0000000000000","COUNTRY_CODE":"US","PERIOD":"95.919","ELEMENT_SET_NO":"999","BSTAR":"0.00006388900000","GP_ID":"224255917","MEAN_MOTION":"15.01264226","APOAPSIS":"564.339","EPHEMERIS_TYPE":"0","NORAD_CAT_ID":"53230","OBJECT_ID":"2022-084AT","EPOCH":"2023-02-02T21:35:19.215744","ARG_OF_PERICENTER":"98.2693","RA_OF_ASC_NODE":"96.8943","TLE_LINE2":"2 53230  97.6523  96.8943 0001931  98.2693 261.8750 15.01264226 30042","SEMIMAJOR_AXIS":"6941.134","LAUNCH_DATE":"2022-07-22"},{"PERIOD":"95.919","ELEMENT_SET_NO":"999","EPHEMERIS_TYPE":"0","APOAPSIS":"564.169","MEAN_MOTION":"15.01263442","NORAD_CAT_ID":"53231","BSTAR":"0.00011619000000","GP_ID":"224255946","EPOCH":"2023-02-02T21:27:19.031328","ARG_OF_PERICENTER":"100.9453","OBJECT_ID":"2022-084AU","LAUNCH_DATE":"2022-07-22","RA_OF_ASC_NODE":"96.8877","SEMIMAJOR_AXIS":"6941.136","TLE_LINE2":"2 53231  97.6527  96.8877 0001682 100.9453 259.1960 15.01263442 29669","MEAN_MOTION_DOT":"0.00001434","OBJECT_TYPE":"PAYLOAD","OBJECT_NAME":"STARLINK-4370","TLE_LINE1":"1 53231U 22084AU  23033.89397027  .00001434  00000-0  11619-3 0  9999","MEAN_ANOMALY":"259.1960","DECAY_DATE":null,"CLASSIFICATION_TYPE":"U","ECCENTRICITY":"0.00016820","REV_AT_EPOCH":"2966","PERIAPSIS":"561.834","MEAN_ELEMENT_THEORY":"SGP4","INCLINATION":"97.6527","TIME_SYSTEM":"UTC","CENTER_NAME":"EARTH","RCS_SIZE":"LARGE","MEAN_MOTION_DDOT":"0.0000000000000","REF_FRAME":"TEME","COUNTRY_CODE":"US","SITE":"AFWTR","FILE":"3768898"},{"ELEMENT_SET_NO":"999","PERIOD":"95.919","APOAPSIS":"564.129","EPHEMERIS_TYPE":"0","MEAN_MOTION":"15.01258922","NORAD_CAT_ID":"53232","BSTAR":"0.00001873600000","GP_ID":"224242320","EPOCH":"2023-02-02T03:54:13.082688","ARG_OF_PERICENTER":"101.7268","OBJECT_ID":"2022-084AV","LAUNCH_DATE":"2022-07-22","RA_OF_ASC_NODE":"96.1643","SEMIMAJOR_AXIS":"6941.150","TLE_LINE2":"2 53232  97.6549  96.1643 0001605 101.7268 258.4137 15.01258922 29559","OBJECT_TYPE":"PAYLOAD","MEAN_MOTION_DOT":"0.00000182","DECAY_DATE":null,"TLE_LINE1":"1 53232U 22084AV  23033.16265142  .00000182  00000-0  18736-4 0  9999","MEAN_ANOMALY":"258.4137","OBJECT_NAME":"STARLINK-4371","CLASSIFICATION_TYPE":"U","PERIAPSIS":"561.901","ECCENTRICITY":"0.00016050","REV_AT_EPOCH":"2955","MEAN_ELEMENT_THEORY":"SGP4","INCLINATION":"97.6549","TIME_SYSTEM":"UTC","CENTER_NAME":"EARTH","RCS_SIZE":"LARGE","COUNTRY_CODE":"US","REF_FRAME":"TEME","MEAN_MOTION_DDOT":"0.0000000000000","SITE":"AFWTR","FILE":"3768366"},{"RCS_SIZE":"LARGE","TIME_SYSTEM":"UTC","CENTER_NAME":"EARTH","INCLINATION":"97.6570","FILE":"3768366","SITE":"AFWTR","REF_FRAME":"TEME","MEAN_MOTION_DDOT":"0.0000000000000","COUNTRY_CODE":"US","CLASSIFICATION_TYPE":"U","OBJECT_NAME":"STARLINK-4372","TLE_LINE1":"1 53233U 22084AW  23033.15894711  .00000693  00000-0  58574-4 0  9990","DECAY_DATE":null,"MEAN_ANOMALY":"249.4186","MEAN_MOTION_DOT":"0.00000693","OBJECT_TYPE":"PAYLOAD","MEAN_ELEMENT_THEORY":"SGP4","REV_AT_EPOCH":"2955","ECCENTRICITY":"0.00015640","PERIAPSIS":"561.924","OBJECT_ID":"2022-084AW","ARG_OF_PERICENTER":"110.7206","EPOCH":"2023-02-02T03:48:53.030304","TLE_LINE2":"2 53233  97.6570  96.1516 0001564 110.7206 249.4186 15.01260798 29557","SEMIMAJOR_AXIS":"6941.144","RA_OF_ASC_NODE":"96.1516","LAUNCH_DATE":"2022-07-22","PERIOD":"95.919","ELEMENT_SET_NO":"999","GP_ID":"224243572","BSTAR":"0.00005857400000","NORAD_CAT_ID":"53233","APOAPSIS":"564.095","MEAN_MOTION":"15.01260798","EPHEMERIS_TYPE":"0"},{"GP_ID":"224255950","BSTAR":"0.00003571200000","NORAD_CAT_ID":"53234","APOAPSIS":"564.072","MEAN_MOTION":"15.01264215","EPHEMERIS_TYPE":"0","ELEMENT_SET_NO":"999","PERIOD":"95.919","TLE_LINE2":"2 53234  97.6568  96.8744 0001546 110.5440 249.5950 15.01264215 29674","SEMIMAJOR_AXIS":"6941.134","RA_OF_ASC_NODE":"96.8744","LAUNCH_DATE":"2022-07-22","OBJECT_ID":"2022-084AX","ARG_OF_PERICENTER":"110.5440","EPOCH":"2023-02-02T21:22:20.326656","MEAN_ELEMENT_THEORY":"SGP4","REV_AT_EPOCH":"2967","ECCENTRICITY":"0.00015460","PERIAPSIS":"561.926","CLASSIFICATION_TYPE":"U","OBJECT_NAME":"STARLINK-4368","TLE_LINE1":"1 53234U 22084AX  23033.89051304  .00000400  00000-0  35712-4 0  9990","MEAN_ANOMALY":"249.5950","DECAY_DATE":null,"MEAN_MOTION_DOT":"0.00000400","OBJECT_TYPE":"PAYLOAD","FILE":"3768914","SITE":"AFWTR","MEAN_MOTION_DDOT":"0.0000000000000","REF_FRAME":"TEME","COUNTRY_CODE":"US","RCS_SIZE":"LARGE","CENTER_NAME":"EARTH","TIME_SYSTEM":"UTC","INCLINATION":"97.6568"},{"LAUNCH_DATE":"2022-07-24","RA_OF_ASC_NODE":"236.5246","TLE_LINE2":"2 53242  53.2137 236.5246 0001235 103.7534 256.3596 15.09099077 30063","SEMIMAJOR_AXIS":"6917.089","EPOCH":"2023-02-02T15:42:24.295104","ARG_OF_PERICENTER":"103.7534","OBJECT_ID":"2022-086A","APOAPSIS":"539.808","MEAN_MOTION":"15.09099077","EPHEMERIS_TYPE":"0","NORAD_CAT_ID":"53242","BSTAR":"-0.00320120000000","GP_ID":"224257650","PERIOD":"95.421","ELEMENT_SET_NO":"999","REF_FRAME":"TEME","MEAN_MOTION_DDOT":"0.0000000000000","COUNTRY_CODE":"US","SITE":"AFETR","FILE":"3768965","INCLINATION":"53.2137","CENTER_NAME":"EARTH","TIME_SYSTEM":"UTC","RCS_SIZE":"LARGE","ECCENTRICITY":"0.00012350","REV_AT_EPOCH":"3006","PERIAPSIS":"538.099","MEAN_ELEMENT_THEORY":"SGP4","MEAN_MOTION_DOT":"-0.00051233","OBJECT_TYPE":"PAYLOAD","OBJECT_NAME":"STARLINK-4056","MEAN_ANOMALY":"256.3596","TLE_LINE1":"1 53242U 22086A   23033.65444786 -.00051233  00000-0 -32012-2 0  9995","DECAY_DATE":null,"CLASSIFICATION_TYPE":"U"},{"OBJECT_NAME":"STARLINK-4047","TLE_LINE1":"1 53243U 22086B   23032.86092921  .00000189  00000-0  29970-4 0  9991","MEAN_ANOMALY":"279.6153","DECAY_DATE":null,"CLASSIFICATION_TYPE":"U","MEAN_MOTION_DOT":"0.00000189","OBJECT_TYPE":"PAYLOAD","MEAN_ELEMENT_THEORY":"SGP4","ECCENTRICITY":"0.00012570","REV_AT_EPOCH":"3039","PERIAPSIS":"538.884","TIME_SYSTEM":"UTC","CENTER_NAME":"EARTH","RCS_SIZE":"LARGE","INCLINATION":"53.2165","SITE":"AFETR","FILE":"3768366","REF_FRAME":"TEME","MEAN_MOTION_DDOT":"0.0000000000000","COUNTRY_CODE":"US","PERIOD":"95.438","ELEMENT_SET_NO":"999","BSTAR":"0.00002997000000","GP_ID":"224244791","APOAPSIS":"540.623","MEAN_MOTION":"15.08837441","EPHEMERIS_TYPE":"0","NORAD_CAT_ID":"53243","OBJECT_ID":"2022-086B","EPOCH":"2023-02-01T20:39:44.283744","ARG_OF_PERICENTER":"80.4981","RA_OF_ASC_NODE":"245.0876","TLE_LINE2":"2 53243  53.2165 245.0876 0001257  80.4981 279.6153 15.08837441 30397","SEMIMAJOR_AXIS":"6917.888","LAUNCH_DATE":"2022-07-24"}];
